NORAD_CAT_ID,OBJECT_NAME,OBJECT_TYPE,EPOCH,MEAN_MOTION,ECCENTRICITY,INCLINATION,RA_OF_ASC_NODE,ARG_OF_PERICENTER,MEAN_ANOMALY,BSTAR,MEAN_MOTION_DOT,MEAN_MOTION_DDOT,TLE_LINE0,TLE_LINE1,TLE_LINE2,SEMIMAJOR_AXIS,PERIOD,APOGEE,PERIGEE,DECAYED
53439.0,STARLINK-4519,PAYLOAD,2024-05-29 22:00:01,15.08818918,0.0001403,53.2157,136.3434,96.3229,288.9995,0.0025033,0.00039754,0.0,0 STARLINK-4519,1 53439U 22097BD  24150.91668981  .00039754  00000-0  25033-2 0  9997,2 53439  53.2157 136.3434 0001403  96.3229 288.9995 15.08818918  5848,6917.945,95.439,540.78,538.839,0.0
53439.0,STARLINK-4519,PAYLOAD,2024-05-30 04:14:53,15.08838383,0.0001324,53.2158,135.1743,101.5603,258.5538,2.0698e-05,4.2e-07,0.0,0 STARLINK-4519,1 53439U 22097BD  24151.17701285  .00000042  00000-0  20698-4 0  9993,2 53439  53.2158 135.1743 0001324 101.5603 258.5538 15.08838383100408,6917.885,95.438,540.666,538.834,0.0
53439.0,STARLINK-4519,PAYLOAD,2024-05-30 09:01:03,15.08838372,0.000134,53.216,134.2825,102.1795,257.9348,2.0181e-05,3.3e-07,0.0,0 STARLINK-4519,1 53439U 22097BD  24151.37573295  .00000033  00000-0  20181-4 0  9990,2 53439  53.2160 134.2825 0001340 102.1795 257.9348 15.08838372100926,6917.885,95.438,540.677,538.823,0.0
53439.0,STARLINK-4519,PAYLOAD,2024-05-31 05:41:04,15.0883518,0.0001363,53.2164,130.4166,100.4213,259.6933,1.651e-05,-2.5e-07,0.0,0 STARLINK-4519,1 53439U 22097BD  24152.23685710 -.00000025  00000-0  16510-4 0  9995,2 53439  53.2164 130.4166 0001363 100.4213 259.6933 15.08835180100560,6917.895,95.438,540.703,538.817,0.0
53439.0,STARLINK-4519,PAYLOAD,2024-06-01 05:31:51,15.08838603,0.0001481,53.2176,125.9589,98.7472,261.3688,5.4755e-05,5.84e-06,0.0,0 STARLINK-4519,1 53439U 22097BD  24153.23045630  .00000584  00000-0  54755-4 0  9999,2 53439  53.2176 125.9589 0001481  98.7472 261.3688 15.08838603101200,6917.885,95.438,540.774,538.725,0.0
53439.0,STARLINK-4519,PAYLOAD,2024-06-01 15:04:09,15.08843882,0.0001427,53.2173,124.1737,90.3417,269.7738,7.4907e-05,9.05e-06,0.0,0 STARLINK-4519,1 53439U 22097BD  24153.62789252  .00000905  00000-0  74907-4 0  9995,2 53439  53.2173 124.1737 0001427  90.3417 269.7738 15.08843882100774,6917.869,95.437,540.721,538.746,0.0
53439.0,STARLINK-4519,PAYLOAD,2024-06-02 05:22:39,15.0883318,0.0001481,53.2165,121.4962,83.1322,276.9839,1.4512e-05,-5.7e-07,0.0,0 STARLINK-4519,1 53439U 22097BD  24154.22406327 -.00000057  00000-0  14512-4 0  9996,2 53439  53.2165 121.4962 0001481  83.1322 276.9839 15.08833180100862,6917.901,95.438,540.791,538.742,0.0
53439.0,STARLINK-4519,PAYLOAD,2024-06-02 06:58:02,15.08834271,0.0001506,53.2164,121.1989,84.0074,276.109,2.4499e-05,1.02e-06,0.0,0 STARLINK-4519,1 53439U 22097BD  24154.29030246  .00000102  00000-0  24499-4 0  9991,2 53439  53.2164 121.1989 0001506  84.0074 276.1090 15.08834271101368,6917.898,95.438,540.805,538.721,0.0
53439.0,STARLINK-4519,PAYLOAD,2024-06-02 14:54:57,15.08839611,0.0001417,53.2169,119.7138,90.8937,269.2218,5.2593e-05,5.49e-06,0.0,0 STARLINK-4519,1 53439U 22097BD  24154.62149835  .00000549  00000-0  52593-4 0  9994,2 53439  53.2169 119.7138 0001417  90.8937 269.2218 15.08839611100925,6917.882,95.438,540.727,538.766,0.0
53439.0,STARLINK-4519,PAYLOAD,2024-06-03 06:48:49,15.08838947,0.0001352,53.2166,116.7394,90.5989,269.5158,2.0615e-05,4e-07,0.0,0 STARLINK-4519,1 53439U 22097BD  24155.28390160  .00000040  00000-0  20615-4 0  9992,2 53439  53.2166 116.7394 0001352  90.5989 269.5158 15.08838947101518,6917.884,95.438,540.684,538.813,0.0
53439.0,STARLINK-4519,PAYLOAD,2024-06-03 14:45:44,15.08848199,0.0001202,53.2169,115.2502,90.1137,269.9993,4.2342e-05,3.86e-06,0.0,0 STARLINK-4519,1 53439U 22097BD  24155.61509424  .00000386  00000-0  42342-4 0  9998,2 53439  53.2169 115.2502 0001202  90.1137 269.9993 15.08848199101567,6917.855,95.437,540.552,538.889,0.0
53439.0,STARLINK-4519,PAYLOAD,2024-06-04 03:28:49,15.08837698,0.000143,53.2187,112.8711,97.2824,262.8331,8.3595e-05,1.043e-05,0.0,0 STARLINK-4519,1 53439U 22097BD  24156.14502031  .00001043  00000-0  83595-4 0  9990,2 53439  53.2187 112.8711 0001430  97.2824 262.8331 15.08837698101151,6917.887,95.438,540.742,538.763,0.0
53439.0,STARLINK-4519,PAYLOAD,2024-06-04 06:39:35,15.08841786,0.0001445,53.2176,112.2764,98.0204,262.0952,6.0413e-05,6.74e-06,0.0,0 STARLINK-4519,1 53439U 22097BD  24156.27749842  .00000674  00000-0  60413-4 0  9990,2 53439  53.2176 112.2764 0001445  98.0204 262.0952 15.08841786101668,6917.875,95.437,540.74,538.74,0.0
53439.0,STARLINK-4519,PAYLOAD,2024-06-04 14:36:31,15.08846966,0.0001494,53.2186,110.7905,98.3855,261.7307,8.9513e-05,1.137e-05,0.0,0 STARLINK-4519,1 53439U 22097BD  24156.60869398  .00001137  00000-0  89513-4 0  9993,2 53439  53.2186 110.7905 0001494  98.3855 261.7307 15.08846966101225,6917.859,95.437,540.758,538.691,0.0
53439.0,STARLINK-4519,PAYLOAD,2024-06-05 03:19:36,15.08840171,0.0001553,53.2175,108.4114,118.8867,241.2281,1.5715e-05,-3.8e-07,0.0,0 STARLINK-4519,1 53439U 22097BD  24157.13862072 -.00000038  00000-0  15715-4 0  9997,2 53439  53.2175 108.4114 0001553 118.8867 241.2281 15.08840171101301,6917.88,95.438,540.819,538.671,0.0
53439.0,STARLINK-4519,PAYLOAD,2024-06-06 03:10:23,15.08843951,0.0001505,53.218,103.9511,104.8869,255.229,3.3425e-05,2.44e-06,0.0,0 STARLINK-4519,1 53439U 22097BD  24158.13221905  .00000244  00000-0  33425-4 0  9998,2 53439  53.2180 103.9511 0001505 104.8869 255.2290 15.08843951101946,6917.868,95.437,540.774,538.692,0.0
53439.0,STARLINK-4519,PAYLOAD,2024-06-07 12:33:29,15.08840769,0.0001258,53.2171,97.7093,100.5533,259.5601,6.4962e-05,7.46e-06,0.0,0 STARLINK-4519,1 53439U 22097BD  24159.52326071  .00000746  00000-0  64962-4 0  9999,2 53439  53.2171  97.7093 0001258 100.5533 259.5601 15.08840769101663,6917.878,95.438,540.613,538.873,0.0
53439.0,STARLINK-4519,PAYLOAD,2024-06-08 02:51:58,15.08828452,0.0001583,53.2184,95.0367,105.9831,254.1336,0.00016145,2.282e-05,0.0,0 STARLINK-4519,1 53439U 22097BD  24160.11942637  .00002282  00000-0  16145-3 0  9994,2 53439  53.2184  95.0367 0001583 105.9831 254.1336 15.08828452101754,6917.916,95.438,540.876,538.686,0.0
53439.0,STARLINK-4519,PAYLOAD,2024-06-08 12:24:16,15.08849258,0.0001323,53.217,93.2464,76.144,283.97,0.00010192,1.335e-05,0.0,0 STARLINK-4519,1 53439U 22097BD  24160.51685458  .00001335  00000-0  10192-3 0  9997,2 53439  53.2170  93.2464 0001323  76.1440 283.9700 15.08849258102308,6917.852,95.437,540.632,538.802,0.0
53439.0,STARLINK-4519,PAYLOAD,2024-06-08 20:21:14,15.08813115,0.0001263,53.2174,91.7575,72.4457,287.6673,-5.3585e-05,-1.14e-05,0.0,0 STARLINK-4519,1 53439U 22097BD  24160.84807904 -.00001140  00000-0 -53585-4 0  9995,2 53439  53.2174  91.7575 0001263  72.4457 287.6673 15.08813115101861,6917.963,95.439,540.701,538.954,0.0
53439.0,STARLINK-4519,PAYLOAD,2024-06-09 02:42:45,15.08826114,0.0001356,53.2177,90.5685,74.0143,286.0998,5.0784e-05,5.2e-06,0.0,0 STARLINK-4519,1 53439U 22097BD  24161.11303199  .00000520  00000-0  50784-4 0  9990,2 53439  53.2177  90.5685 0001356  74.0143 286.0998 15.08826114101907,6917.923,95.438,540.726,538.85,0.0
53439.0,STARLINK-4519,PAYLOAD,2024-06-10 04:08:54,15.08856985,0.0001342,53.2179,85.8137,89.2729,270.8417,0.00016734,2.377e-05,0.0,0 STARLINK-4519,1 53439U 22097BD  24162.17285446  .00002377  00000-0  16734-3 0  9999,2 53439  53.2179  85.8137 0001342  89.2729 270.8417 15.08856985102065,6917.828,95.436,540.622,538.765,0.0
53439.0,STARLINK-4519,PAYLOAD,2024-06-10 12:05:49,15.08866425,0.0001384,53.2163,84.3253,72.5527,287.5616,0.0003442,5.198e-05,0.0,0 STARLINK-4519,1 53439U 22097BD  24162.50404718  .00005198  00000-0  34420-3 0  9997,2 53439  53.2163  84.3253 0001384  72.5527 287.5616 15.08866425102604,6917.8,95.436,540.622,538.707,0.0
53439.0,STARLINK-4519,PAYLOAD,2024-06-11 02:24:20,15.08826394,0.0001295,53.2177,81.6495,82.7519,277.362,-7.1952e-05,-1.432e-05,0.0,0 STARLINK-4519,1 53439U 22097BD  24163.10023195 -.00001432  00000-0 -71952-4 0  9991,2 53439  53.2177  81.6495 0001295  82.7519 277.3620 15.08826394102201,6917.922,95.438,540.683,538.891,0.0
53439.0,STARLINK-4519,PAYLOAD,2024-06-11 11:56:38,15.08843836,0.0001221,53.217,79.8669,91.2194,268.8938,9.7588e-05,1.266e-05,0.0,0 STARLINK-4519,1 53439U 22097BD  24163.49766308  .00001266  00000-0  97588-4 0  9999,2 53439  53.2170  79.8669 0001221  91.2194 268.8938 15.08843836102756,6917.869,95.437,540.578,538.889,0.0
53439.0,STARLINK-4519,PAYLOAD,2024-06-12 00:39:43,15.08844255,0.0001387,53.2187,77.4865,93.1193,266.9958,-2.5262e-05,-6.9e-06,0.0,0 STARLINK-4519,1 53439U 22097BD  24164.02758489 -.00000690  00000-0 -25262-4 0  9992,2 53439  53.2187  77.4865 0001387  93.1193 266.9958 15.08844255102341,6917.867,95.437,540.692,538.773,0.0
53439.0,STARLINK-4519,PAYLOAD,2024-06-12 21:19:45,15.08825081,0.0001336,53.2174,73.6225,83.2035,276.911,0.00016979,2.414e-05,0.0,0 STARLINK-4519,1 53439U 22097BD  24164.88871647  .00002414  00000-0  16979-3 0  9996,2 53439  53.2174  73.6225 0001336  83.2035 276.9110 15.08825081102475,6917.926,95.438,540.715,538.867,0.0
53439.0,STARLINK-4519,PAYLOAD,2024-06-13 03:41:17,15.08833806,0.0001817,53.2189,72.4291,109.6139,250.5049,7.6239e-05,9.25e-06,0.0,0 STARLINK-4519,1 53439U 22097BD  24165.15367230  .00000925  00000-0  76239-4 0  9996,2 53439  53.2189  72.4291 0001817 109.6139 250.5049 15.08833806102511,6917.899,95.438,541.021,538.507,0.0
53439.0,STARLINK-4519,PAYLOAD,2024-06-13 22:45:54,15.08840103,0.0001591,53.2177,68.8611,108.4969,251.6196,0.00013785,1.907e-05,0.0,0 STARLINK-4519,1 53439U 22097BD  24165.94855152  .00001907  00000-0  13785-3 0  9995,2 53439  53.2177  68.8611 0001591 108.4969 251.6196 15.08840103103121,6917.88,95.438,540.846,538.644,0.0
53439.0,STARLINK-4519,PAYLOAD,2024-06-14 00:21:18,15.08839983,0.0001505,53.2186,68.5669,86.3155,273.8009,0.0001673,2.376e-05,0.0,0 STARLINK-4519,1 53439U 22097BD  24166.01479307  .00002376  00000-0  16730-3 0  9992,2 53439  53.2186  68.5669 0001505  86.3155 273.8009 15.08839983103131,6917.88,95.438,540.787,538.704,0.0
